"CCSDS_OMM_VERS","COMMENT","CREATION_DATE","ORIGINATOR","OBJECT_NAME","OBJECT_ID","CENTER_NAME","REF_FRAME","TIME_SYSTEM","MEAN_ELEMENT_THEORY","EPOCH","MEAN_MOTION","ECCENTRICITY","INCLINATION","RA_OF_ASC_NODE","ARG_OF_PERICENTER","MEAN_ANOMALY","EPHEMERIS_TYPE","CLASSIFICATION_TYPE","NORAD_CAT_ID","ELEMENT_SET_NO","REV_AT_EPOCH","BSTAR","MEAN_MOTION_DOT","MEAN_MOTION_DDOT","SEMIMAJOR_AXIS","PERIOD","APOAPSIS","PERIAPSIS","OBJECT_TYPE","RCS_SIZE","COUNTRY_CODE","LAUNCH_DATE","SITE","DECAY_DATE","FILE","GP_ID","TLE_LINE0","TLE_LINE1","TLE_LINE2"
"2.0","GENERATED VIA SPACE-TRACK.ORG API","2022-09-15T22:16:12","18 SPCS","CARTOSAT 3","2019-081A","EARTH","TEME","UTC","SGP4","2022-09-15T19:23:29.642208","15.19315476","0.00117460","97.3893","318.5007","258.1314","211.0645","0","U","44804","999","15535","0.00015981000000","0.00003312","0.0000000000000","6886.045","94.780","515.999","499.822","PAYLOAD","LARGE","IND","2019-11-27","SRI",null,"3574610","212648479","0 CARTOSAT 3","1 44804U 19081A   22258.80798197  .00003312  00000-0  15981-3 0  9993","2 44804  97.3893 318.5007 0011746 258.1314 211.0645 15.19315476155358"
"2.0","GENERATED VIA SPACE-TRACK.ORG API","2022-09-16T03:02:57","18 SPCS","CARTOSAT 3","2019-081A","EARTH","TEME","UTC","SGP4","2022-09-15T19:23:29.642208","15.19315476","0.00117460","97.3893","318.5007","258.1314","211.0645","0","U","44804","999","15535","0.00015981000000","0.00003312","0.0000000000000","6886.045","94.780","515.999","499.822","PAYLOAD","LARGE","IND","2019-11-27","SRI",null,"3575050","212678369","0 CARTOSAT 3","1 44804U 19081A   22258.80798197  .00003312  00000-0  15981-3 0  9993","2 44804  97.3893 318.5007 0011746 258.1314 211.0645 15.19315476155358"
"2.0","GENERATED VIA SPACE-TRACK.ORG API","2022-09-16T06:26:11","18 SPCS","CARTOSAT 3","2019-081A","EARTH","TEME","UTC","SGP4","2022-09-16T03:04:38.417088","15.19317420","0.00117620","97.3893","318.8140","256.8613","162.7826","0","U","44804","999","15540","0.00015847000000","0.00003284","0.0000000000000","6886.039","94.779","516.004","499.805","PAYLOAD","LARGE","IND","2019-11-27","SRI",null,"3575091","212685142","0 CARTOSAT 3","1 44804U 19081A   22259.12822242  .00003284  00000-0  15847-3 0  9997","2 44804  97.3893 318.8140 0011762 256.8613 162.7826 15.19317420155404"
"2.0","GENERATED VIA SPACE-TRACK.ORG API","2022-09-16T14:16:12","18 SPCS","CARTOSAT 3","2019-081A","EARTH","TEME","UTC","SGP4","2022-09-16T12:47:23.431776","15.19320237","0.00117600","97.3892","319.2101","255.5440","216.1450","0","U","44804","999","15546","0.00015898000000","0.00003295","0.0000000000000","6886.031","94.779","515.994","499.798","PAYLOAD","LARGE","IND","2019-11-27","SRI",null,"3575365","212690810","0 CARTOSAT 3","1 44804U 19081A   22259.53291009  .00003295  00000-0  15898-3 0  9991","2 44804  97.3892 319.2101 0011760 255.5440 216.1450 15.19320237155460"
"2.0","GENERATED VIA SPACE-TRACK.ORG API","2022-09-16T18:51:30","18 SPCS","CARTOSAT 3","2019-081A","EARTH","TEME","UTC","SGP4","2022-09-16T12:47:23.431776","15.19320237","0.00117600","97.3892","319.2101","255.5440","216.1450","0","U","44804","999","15546","0.00015898000000","0.00003295","0.0000000000000","6886.031","94.779","515.994","499.798","PAYLOAD","LARGE","IND","2019-11-27","SRI",null,"3575604","212716217","0 CARTOSAT 3","1 44804U 19081A   22259.53291009  .00003295  00000-0  15898-3 0  9991","2 44804  97.3892 319.2101 0011760 255.5440 216.1450 15.19320237155460"
"2.0","GENERATED VIA SPACE-TRACK.ORG API","2022-09-16T22:16:11","18 SPCS","CARTOSAT 3","2019-081A","EARTH","TEME","UTC","SGP4","2022-09-16T17:27:36.070848","15.19321364","0.00117480","97.3892","319.4002","254.7097","200.6236","0","U","44804","999","15549","0.00015765000000","0.00003267","0.0000000000000","6886.027","94.779","515.982","499.803","PAYLOAD","LARGE","IND","2019-11-27","SRI",null,"3575614","212722302","0 CARTOSAT 3","1 44804U 19081A   22259.72750082  .00003267  00000-0  15765-3 0  9995","2 44804  97.3892 319.4002 0011748 254.7097 200.6236 15.19321364155492"
"2.0","GENERATED VIA SPACE-TRACK.ORG API","2022-09-17T04:39:31","18 SPCS","CARTOSAT 3","2019-081A","EARTH","TEME","UTC","SGP4","2022-09-16T20:41:59.256960","15.19321997","0.00117510","97.3892","319.5323","254.2055","218.9933","0","U","44804","999","15551","0.00015625000000","0.00003237","0.0000000000000","6886.025","94.779","515.982","499.799","PAYLOAD","LARGE","IND","2019-11-27","SRI",null,"3575787","212745529","0 CARTOSAT 3","1 44804U 19081A   22259.86249140  .00003237  00000-0  15625-3 0  9990","2 44804  97.3892 319.5323 0011751 254.2055 218.9933 15.19321997155513"
"2.0","GENERATED VIA SPACE-TRACK.ORG API","2022-09-17T06:26:12","18 SPCS","CARTOSAT 3","2019-081A","EARTH","TEME","UTC","SGP4","2022-09-17T04:28:38.389152","15.19324227","0.00117860","97.3891","319.8492","252.9037","191.6530","0","U","44804","999","15556","0.00015629000000","0.00003238","0.0000000000000","6886.019","94.779","516.000","499.768","PAYLOAD","LARGE","IND","2019-11-27","SRI",null,"3575793","212777824","0 CARTOSAT 3","1 44804U 19081A   22260.18655543  .00003238  00000-0  15629-3 0  9990","2 44804  97.3891 319.8492 0011786 252.9037 191.6530 15.19324227155569"
"2.0","GENERATED VIA SPACE-TRACK.ORG API","2022-09-17T14:16:12","18 SPCS","CARTOSAT 3","2019-081A","EARTH","TEME","UTC","SGP4","2022-09-17T09:07:08.621760","15.19325668","0.00117740","97.3889","320.0384","252.2684","169.4577","0","U","44804","999","15559","0.00015748000000","0.00003264","0.0000000000000","6886.014","94.779","515.987","499.772","PAYLOAD","LARGE","IND","2019-11-27","SRI",null,"3576140","212785246","0 CARTOSAT 3","1 44804U 19081A   22260.37996090  .00003264  00000-0  15748-3 0  9997","2 44804  97.3889 320.0384 0011774 252.2684 169.4577 15.19325668155595"
"2.0","GENERATED VIA SPACE-TRACK.ORG API","2022-09-17T17:26:21","18 SPCS","CARTOSAT 3","2019-081A","EARTH","TEME","UTC","SGP4","2022-09-17T12:29:43.645056","15.19326585","0.00117670","97.3888","320.1761","251.6581","219.0539","0","U","44804","999","15561","0.00015694000000","0.00003252","0.0000000000000","6886.012","94.779","515.979","499.774","PAYLOAD","LARGE","IND","2019-11-27","SRI",null,"3576375","212810400","0 CARTOSAT 3","1 44804U 19081A   22260.52064404  .00003252  00000-0  15694-3 0  9996","2 44804  97.3888 320.1761 0011767 251.6581 219.0539 15.19326585155617"
"2.0","GENERATED VIA SPACE-TRACK.ORG API","2022-09-17T22:16:12","18 SPCS","CARTOSAT 3","2019-081A","EARTH","TEME","UTC","SGP4","2022-09-17T20:10:27.190272","15.19328466","0.00117670","97.3887","320.4892","250.4312","169.1452","0","U","44804","999","15566","0.00015546000000","0.00003221","0.0000000000000","6886.006","94.779","515.974","499.768","PAYLOAD","LARGE","IND","2019-11-27","SRI",null,"3576394","212842278","0 CARTOSAT 3","1 44804U 19081A   22260.84059248  .00003221  00000-0  15546-3 0  9993","2 44804  97.3887 320.4892 0011767 250.4312 169.1452 15.19328466155667"
"2.0","GENERATED VIA SPACE-TRACK.ORG API","2022-09-18T02:09:51","18 SPCS","CARTOSAT 3","2019-081A","EARTH","TEME","UTC","SGP4","2022-09-17T20:10:27.190272","15.19328466","0.00117670","97.3887","320.4892","250.4312","169.1452","0","U","44804","999","15566","0.00015546000000","0.00003221","0.0000000000000","6886.006","94.779","515.974","499.768","PAYLOAD","LARGE","IND","2019-11-27","SRI",null,"3576621","212867374","0 CARTOSAT 3","1 44804U 19081A   22260.84059248  .00003221  00000-0  15546-3 0  9993","2 44804  97.3887 320.4892 0011767 250.4312 169.1452 15.19328466155667"
"2.0","GENERATED VIA SPACE-TRACK.ORG API","2022-09-18T06:26:12","18 SPCS","CARTOSAT 3","2019-081A","EARTH","TEME","UTC","SGP4","2022-09-18T04:04:25.679424","15.19330477","0.00117890","97.3887","320.8113","249.1368","169.5991","0","U","44804","999","15571","0.00015435000000","0.00003198","0.0000000000000","6886.000","94.779","515.983","499.747","PAYLOAD","LARGE","IND","2019-11-27","SRI",null,"3576639","212873579","0 CARTOSAT 3","1 44804U 19081A   22261.16974166  .00003198  00000-0  15435-3 0  9994","2 44804  97.3887 320.8113 0011789 249.1368 169.5991 15.19330477155710"
"2.0","GENERATED VIA SPACE-TRACK.ORG API","2022-09-18T14:16:12","18 SPCS","CARTOSAT 3","2019-081A","EARTH","TEME","UTC","SGP4","2022-09-18T05:46:25.447584","15.19331002","0.00117880","97.3887","320.8806","248.9490","196.9543","0","U","44804","999","15572","0.00015471000000","0.00003205","0.0000000000000","6885.998","94.779","515.980","499.746","PAYLOAD","LARGE","IND","2019-11-27","SRI",null,"3576896","212878815","0 CARTOSAT 3","1 44804U 19081A   22261.24057231  .00003205  00000-0  15471-3 0  9997","2 44804  97.3887 320.8806 0011788 248.9490 196.9543 15.19331002155724"
"2.0","GENERATED VIA SPACE-TRACK.ORG API","2022-09-18T18:05:23","18 SPCS","CARTOSAT 3","2019-081A","EARTH","TEME","UTC","SGP4","2022-09-18T12:12:44.622720","15.19332974","0.00117700","97.3884","321.1428","248.1290","224.2068","0","U","44804","999","15576","0.00015618000000","0.00003237","0.0000000000000","6885.992","94.778","515.962","499.752","PAYLOAD","LARGE","IND","2019-11-27","SRI",null,"3577171","212904115","0 CARTOSAT 3","1 44804U 19081A   22261.50884980  .00003237  00000-0  15618-3 0  9993","2 44804  97.3884 321.1428 0011770 248.1290 224.2068 15.19332974155766"
"2.0","GENERATED VIA SPACE-TRACK.ORG API","2022-09-18T22:16:13","18 SPCS","CARTOSAT 3","2019-081A","EARTH","TEME","UTC","SGP4","2022-09-18T18:33:32.476320","15.19334519","0.00117600","97.3884","321.4015","247.1171","230.6904","0","U","44804","999","15580","0.00015485000000","0.00003209","0.0000000000000","6885.988","94.778","515.951","499.755","PAYLOAD","LARGE","IND","2019-11-27","SRI",null,"3577181","212937079","0 CARTOSAT 3","1 44804U 19081A   22261.77329255  .00003209  00000-0  15485-3 0  9992","2 44804  97.3884 321.4015 0011760 247.1171 230.6904 15.19334519155809"
